STARLINK-36569          
1 67553U 26014X   26048.15739977  .00357351  00000+0  22844-2 0  9992
2 67553  97.2844 292.1100 0001489  84.7571 275.3864 15.75325490  5338
STARLINK-36395          
1 67554U 26014Y   26048.17786182  .00334775  00000+0  21525-2 0  9995
2 67554  97.2842 292.0813 0003779 151.6732 208.4739 15.75252007  5335
STARLINK-36559          
1 67555U 26014Z   26048.17928576  .00189101  00000+0  12380-2 0  9991
2 67555  97.2857 292.0817 0002220  77.6928 282.4586 15.75241969  5337
MR-2                    
1 67556U 26015A   26048.14875715  .00000075  00000+0  95136-4 0  9990
2 67556  88.9966 280.7511 0005073  75.2960 284.8754 13.52686507  3481
MR-1                    
1 67557U 26015B   26048.14922596  .00000081  00000+0  10324-3 0  9993
2 67557  88.9966 280.7514 0005157  73.9114 286.2606 13.52661644  3481
ELECTRON KICK STAGE R/B 
1 67559U 26015D   26048.13336853  .00056734  36612-7  95271-3 0  9995
2 67559  89.0501 280.3395 0527643 245.1999 109.3471 14.68447037  3779
STARLINK-36426          
1 67560U 26014AA  26048.16667824  .00075590  00000+0  50399-3 0  9991
2 67560  97.2868 292.1371 0001595  80.7373   5.9906 15.75152685  4221
STARLINK-36621          
1 67561U 26016A   26048.14374648  .00112848  00000+0  74728-3 0  9991
2 67561  97.2834 107.5340 0001231  54.2059 305.9320 15.75196727  3568
STARLINK-36398          
1 67562U 26016B   26048.15115839  .00179976  00000+0  11805-2 0  9999
2 67562  97.2841 107.5221 0001322  63.4238 296.7163 15.75223587  3564
STARLINK-36403          
1 67563U 26016C   26048.11798553  .00157567  00000+0  80576-3 0  9990
2 67563  97.2822 107.5709 0001714 115.2269 244.9177 15.80892144  3567
STARLINK-36593          
1 67564U 26016D   26048.11676546  .00123388  00000+0  63435-3 0  9997
2 67564  97.2819 107.5722 0001451  97.8796 262.2637 15.80867200  3566
