CCSDS_OMM_VERS = 2.0
CREATION_DATE  = 
ORIGINATOR     = 

OBJECT_NAME    = STARLINK-36569
OBJECT_ID      = 2026-014X
CENTER_NAME    = EARTH
REF_FRAME      = TEME
TIME_SYSTEM    = UTC
MEAN_ELEMENT_THEORY = SGP/SGP4

EPOCH          = 2026-02-17T03:46:39.340128
MEAN_MOTION    = 15.75325490
ECCENTRICITY   = .0001489
INCLINATION    = 97.2844
RA_OF_ASC_NODE = 292.1100
ARG_OF_PERICENTER = 84.7571
MEAN_ANOMALY   = 275.3864

EPHEMERIS_TYPE = 0
CLASSIFICATION_TYPE = U
NORAD_CAT_ID   = 67553
ELEMENT_SET_NO = 999
REV_AT_EPOCH   = 533
BSTAR          = .22844E-2
MEAN_MOTION_DOT = .357351E-2
MEAN_MOTION_DDOT = 0

CCSDS_OMM_VERS = 2.0
CREATION_DATE  = 
ORIGINATOR     = 

OBJECT_NAME    = STARLINK-36395
OBJECT_ID      = 2026-014Y
CENTER_NAME    = EARTH
REF_FRAME      = TEME
TIME_SYSTEM    = UTC
MEAN_ELEMENT_THEORY = SGP/SGP4

EPOCH          = 2026-02-17T04:16:07.261248
MEAN_MOTION    = 15.75252007
ECCENTRICITY   = .0003779
INCLINATION    = 97.2842
RA_OF_ASC_NODE = 292.0813
ARG_OF_PERICENTER = 151.6732
MEAN_ANOMALY   = 208.4739

EPHEMERIS_TYPE = 0
CLASSIFICATION_TYPE = U
NORAD_CAT_ID   = 67554
ELEMENT_SET_NO = 999
REV_AT_EPOCH   = 533
BSTAR          = .21525E-2
MEAN_MOTION_DOT = .334775E-2
MEAN_MOTION_DDOT = 0

CCSDS_OMM_VERS = 2.0
CREATION_DATE  = 
ORIGINATOR     = 

OBJECT_NAME    = STARLINK-36559
OBJECT_ID      = 2026-014Z
CENTER_NAME    = EARTH
REF_FRAME      = TEME
TIME_SYSTEM    = UTC
MEAN_ELEMENT_THEORY = SGP/SGP4

EPOCH          = 2026-02-17T04:18:10.289664
MEAN_MOTION    = 15.75241969
ECCENTRICITY   = .000222
INCLINATION    = 97.2857
RA_OF_ASC_NODE = 292.0817
ARG_OF_PERICENTER = 77.6928
MEAN_ANOMALY   = 282.4586

EPHEMERIS_TYPE = 0
CLASSIFICATION_TYPE = U
NORAD_CAT_ID   = 67555
ELEMENT_SET_NO = 999
REV_AT_EPOCH   = 533
BSTAR          = .1238E-2
MEAN_MOTION_DOT = .189101E-2
MEAN_MOTION_DDOT = 0

CCSDS_OMM_VERS = 2.0
CREATION_DATE  = 
ORIGINATOR     = 

OBJECT_NAME    = MR-2
OBJECT_ID      = 2026-015A
CENTER_NAME    = EARTH
REF_FRAME      = TEME
TIME_SYSTEM    = UTC
MEAN_ELEMENT_THEORY = SGP/SGP4

EPOCH          = 2026-02-17T03:34:12.617760
MEAN_MOTION    = 13.52686507
ECCENTRICITY   = .0005073
INCLINATION    = 88.9966
RA_OF_ASC_NODE = 280.7511
ARG_OF_PERICENTER = 75.2960
MEAN_ANOMALY   = 284.8754

EPHEMERIS_TYPE = 0
CLASSIFICATION_TYPE = U
NORAD_CAT_ID   = 67556
ELEMENT_SET_NO = 999
REV_AT_EPOCH   = 348
BSTAR          = .95136E-4
MEAN_MOTION_DOT = .75E-6
MEAN_MOTION_DDOT = 0

CCSDS_OMM_VERS = 2.0
CREATION_DATE  = 
ORIGINATOR     = 

OBJECT_NAME    = MR-1
OBJECT_ID      = 2026-015B
CENTER_NAME    = EARTH
REF_FRAME      = TEME
TIME_SYSTEM    = UTC
MEAN_ELEMENT_THEORY = SGP/SGP4

EPOCH          = 2026-02-17T03:34:53.122944
MEAN_MOTION    = 13.52661644
ECCENTRICITY   = .0005157
INCLINATION    = 88.9966
RA_OF_ASC_NODE = 280.7514
ARG_OF_PERICENTER = 73.9114
MEAN_ANOMALY   = 286.2606

EPHEMERIS_TYPE = 0
CLASSIFICATION_TYPE = U
NORAD_CAT_ID   = 67557
ELEMENT_SET_NO = 999
REV_AT_EPOCH   = 348
BSTAR          = .10324E-3
MEAN_MOTION_DOT = .81E-6
MEAN_MOTION_DDOT = 0

CCSDS_OMM_VERS = 2.0
CREATION_DATE  = 
ORIGINATOR     = 

OBJECT_NAME    = ELECTRON KICK STAGE R/B
OBJECT_ID      = 2026-015D
CENTER_NAME    = EARTH
REF_FRAME      = TEME
TIME_SYSTEM    = UTC
MEAN_ELEMENT_THEORY = SGP/SGP4

EPOCH          = 2026-02-17T03:12:03.040992
MEAN_MOTION    = 14.68447037
ECCENTRICITY   = .0527643
INCLINATION    = 89.0501
RA_OF_ASC_NODE = 280.3395
ARG_OF_PERICENTER = 245.1999
MEAN_ANOMALY   = 109.3471

EPHEMERIS_TYPE = 0
CLASSIFICATION_TYPE = U
NORAD_CAT_ID   = 67559
ELEMENT_SET_NO = 999
REV_AT_EPOCH   = 377
BSTAR          = .95271E-3
MEAN_MOTION_DOT = .56734E-3
MEAN_MOTION_DDOT = .36612E-7

CCSDS_OMM_VERS = 2.0
CREATION_DATE  = 
ORIGINATOR     = 

OBJECT_NAME    = STARLINK-36426
OBJECT_ID      = 2026-014AA
CENTER_NAME    = EARTH
REF_FRAME      = TEME
TIME_SYSTEM    = UTC
MEAN_ELEMENT_THEORY = SGP/SGP4

EPOCH          = 2026-02-17T04:00:00.999936
MEAN_MOTION    = 15.75152685
ECCENTRICITY   = .0001595
INCLINATION    = 97.2868
RA_OF_ASC_NODE = 292.1371
ARG_OF_PERICENTER = 80.7373
MEAN_ANOMALY   = 5.9906

EPHEMERIS_TYPE = 0
CLASSIFICATION_TYPE = U
NORAD_CAT_ID   = 67560
ELEMENT_SET_NO = 999
REV_AT_EPOCH   = 422
BSTAR          = .50399E-3
MEAN_MOTION_DOT = .7559E-3
MEAN_MOTION_DDOT = 0

CCSDS_OMM_VERS = 2.0
CREATION_DATE  = 
ORIGINATOR     = 

OBJECT_NAME    = STARLINK-36621
OBJECT_ID      = 2026-016A
CENTER_NAME    = EARTH
REF_FRAME      = TEME
TIME_SYSTEM    = UTC
MEAN_ELEMENT_THEORY = SGP/SGP4

EPOCH          = 2026-02-17T03:26:59.695872
MEAN_MOTION    = 15.75196727
ECCENTRICITY   = .0001231
INCLINATION    = 97.2834
RA_OF_ASC_NODE = 107.5340
ARG_OF_PERICENTER = 54.2059
MEAN_ANOMALY   = 305.9320

EPHEMERIS_TYPE = 0
CLASSIFICATION_TYPE = U
NORAD_CAT_ID   = 67561
ELEMENT_SET_NO = 999
REV_AT_EPOCH   = 356
BSTAR          = .74728E-3
MEAN_MOTION_DOT = .112848E-2
MEAN_MOTION_DDOT = 0

CCSDS_OMM_VERS = 2.0
CREATION_DATE  = 
ORIGINATOR     = 

OBJECT_NAME    = STARLINK-36398
OBJECT_ID      = 2026-016B
CENTER_NAME    = EARTH
REF_FRAME      = TEME
TIME_SYSTEM    = UTC
MEAN_ELEMENT_THEORY = SGP/SGP4

EPOCH          = 2026-02-17T03:37:40.084896
MEAN_MOTION    = 15.75223587
ECCENTRICITY   = .0001322
INCLINATION    = 97.2841
RA_OF_ASC_NODE = 107.5221
ARG_OF_PERICENTER = 63.4238
MEAN_ANOMALY   = 296.7163

EPHEMERIS_TYPE = 0
CLASSIFICATION_TYPE = U
NORAD_CAT_ID   = 67562
ELEMENT_SET_NO = 999
REV_AT_EPOCH   = 356
BSTAR          = .11805E-2
MEAN_MOTION_DOT = .179976E-2
MEAN_MOTION_DDOT = 0

CCSDS_OMM_VERS = 2.0
CREATION_DATE  = 
ORIGINATOR     = 

OBJECT_NAME    = STARLINK-36403
OBJECT_ID      = 2026-016C
CENTER_NAME    = EARTH
REF_FRAME      = TEME
TIME_SYSTEM    = UTC
MEAN_ELEMENT_THEORY = SGP/SGP4

EPOCH          = 2026-02-17T02:49:53.949792
MEAN_MOTION    = 15.80892144
ECCENTRICITY   = .0001714
INCLINATION    = 97.2822
RA_OF_ASC_NODE = 107.5709
ARG_OF_PERICENTER = 115.2269
MEAN_ANOMALY   = 244.9177

EPHEMERIS_TYPE = 0
CLASSIFICATION_TYPE = U
NORAD_CAT_ID   = 67563
ELEMENT_SET_NO = 999
REV_AT_EPOCH   = 356
BSTAR          = .80576E-3
MEAN_MOTION_DOT = .157567E-2
MEAN_MOTION_DDOT = 0

CCSDS_OMM_VERS = 2.0
CREATION_DATE  = 
ORIGINATOR     = 

OBJECT_NAME    = STARLINK-36593
OBJECT_ID      = 2026-016D
CENTER_NAME    = EARTH
REF_FRAME      = TEME
TIME_SYSTEM    = UTC
MEAN_ELEMENT_THEORY = SGP/SGP4

EPOCH          = 2026-02-17T02:48:08.535744
MEAN_MOTION    = 15.80867200
ECCENTRICITY   = .0001451
INCLINATION    = 97.2819
RA_OF_ASC_NODE = 107.5722
ARG_OF_PERICENTER = 97.8796
MEAN_ANOMALY   = 262.2637

EPHEMERIS_TYPE = 0
CLASSIFICATION_TYPE = U
NORAD_CAT_ID   = 67564
ELEMENT_SET_NO = 999
REV_AT_EPOCH   = 356
BSTAR          = .63435E-3
MEAN_MOTION_DOT = .123388E-2
MEAN_MOTION_DDOT = 0

